[
  {
    "Name": "Jamieson",
    "Surname": "Leeson",
    "Age at 28 Aug": 21,
    "M/F": "F",
    "Sport": "Boccia",
    "Event(s)": "Individual, Mixed Pairs",
    "Classification": "BC3",
    "Resident City": "Sydney Olympic Park",
    "State": "NSW",
    "Postcode": 2127,
    "Birth Place": "Mudgee"
  },
  {
    "Name": "Ash",
    "Surname": "Maddern",
    "Age at 28 Aug": 35,
    "M/F": "F",
    "Sport": "Boccia",
    "Event(s)": "Ramp Operator – Dan Michel",
    "Classification": "Ramp Operator",
    "Resident City": "Thirroul",
    "State": "NSW",
    "Postcode": 2515,
    "Birth Place": "Caringbah"
  },
  {
    "Name": "Dan",
    "Surname": "Michel",
    "Age at 28 Aug": 29,
    "M/F": "M",
    "Sport": "Boccia",
    "Event(s)": "Individual, Mixed Pairs",
    "Classification": "BC3",
    "Resident City": "Cronulla",
    "State": "NSW",
    "Postcode": 2230,
    "Birth Place": "Paddington"
  },
  {
    "Name": "Patrick",
    "Surname": "French",
    "Age at 28 Aug": 31,
    "M/F": "M",
    "Sport": "Para-archery",
    "Event(s)": "Individual Compound",
    "Classification": "W2 Open",
    "Resident City": "Romsey",
    "State": "VIC",
    "Postcode": 3434,
    "Birth Place": "Kyneton"
  },
  {
    "Name": "AJ",
    "Surname": "Jennings",
    "Age at 28 Aug": 52,
    "M/F": "F",
    "Sport": "Para-archery",
    "Event(s)": "Individual Recurve,\nTeams Recurve",
    "Classification": "Standing Open",
    "Resident City": "Logan Village",
    "State": "QLD",
    "Postcode": 4207,
    "Birth Place": "Slough"
  },
  {
    "Name": "Taymon",
    "Surname": "Kenton- Smith",
    "Age at 28 Aug": 29,
    "M/F": "M",
    "Sport": "Para-archery",
    "Event(s)": "Individual Recurve, Teams Recurve",
    "Classification": "Standing Open",
    "Resident City": "Springfield Lakes",
    "State": "QLD",
    "Postcode": 4301,
    "Birth Place": "Redbank Plains"
  },
  {
    "Name": "Ameera",
    "Surname": "Lee",
    "Age at 28 Aug": 50,
    "M/F": "F",
    "Sport": "Para-archery",
    "Event(s)": "Individual Compound",
    "Classification": "W2 Open",
    "Resident City": "Homebush",
    "State": "NSW",
    "Postcode": 2140,
    "Birth Place": "Brisbane"
  },
  {
    "Name": "Jonathon",
    "Surname": "Milne",
    "Age at 28 Aug": 38,
    "M/F": "M",
    "Sport": "Para-archery",
    "Event(s)": "Individual Compound",
    "Classification": "W2 Open",
    "Resident City": "Avoca Beach",
    "State": "NSW",
    "Postcode": 2251,
    "Birth Place": "Penrith"
  },
  {
    "Name": "Melissa- Anne",
    "Surname": "Tanner",
    "Age at 28 Aug": 51,
    "M/F": "F",
    "Sport": "Para-archery",
    "Event(s)": "Individual Compound",
    "Classification": "Standing Open",
    "Resident City": "Southport",
    "State": "QLD",
    "Postcode": 4215,
    "Birth Place": "Singapore"
  },
  {
    "Name": "Corey",
    "Surname": "Anderson",
    "Age at 28 Aug": 24,
    "M/F": "M",
    "Sport": "Para-athletics",
    "Event(s)": "Javelin",
    "Classification": "F38",
    "Resident City": "Banksia Beach",
    "State": "QLD",
    "Postcode": 4507,
    "Birth Place": "Caringbah"
  },
  {
    "Name": "Luke",
    "Surname": "Bailey",
    "Age at 28 Aug": 26,
    "M/F": "M",
    "Sport": "Para-athletics",
    "Event(s)": "100m, 400m, 800m",
    "Classification": "T54",
    "Resident City": "Wickham",
    "State": "NSW",
    "Postcode": 2293,
    "Birth Place": "Taree"
  },
  {
    "Name": "Angie",
    "Surname": "Ballard",
    "Age at 28 Aug": 42,
    "M/F": "F",
    "Sport": "Para-athletics",
    "Event(s)": "400m, 800m",
    "Classification": "T53",
    "Resident City": "Macquarie",
    "State": "ACT",
    "Postcode": 2614,
    "Birth Place": "Canberra"
  },
  {
    "Name": "Telaya",
    "Surname": "Blacksmith",
    "Age at 28 Aug": 16,
    "M/F": "F",
    "Sport": "Para-athletics",
    "Event(s)": "400m, Long Jump",
    "Classification": "T20",
    "Resident City": "Heathcote",
    "State": "NSW",
    "Postcode": 2233,
    "Birth Place": "Perth"
  },
  {
    "Name": "Michal",
    "Surname": "Burian",
    "Age at 28 Aug": 32,
    "M/F": "M",
    "Sport": "Para-athletics",
    "Event(s)": "Javelin",
    "Classification": "T44/F44",
    "Resident City": "Highett",
    "State": "VIC",
    "Postcode": 3190,
    "Birth Place": "Melnik"
  },
  {
    "Name": "Rhiannon",
    "Surname": "Clarke",
    "Age at 28 Aug": 22,
    "M/F": "F",
    "Sport": "Para-athletics",
    "Event(s)": "100m, 400m",
    "Classification": "T38",
    "Resident City": "Kingsley",
    "State": "WA",
    "Postcode": 6026,
    "Birth Place": "Joondalup"
  },
  {
    "Name": "Jaryd",
    "Surname": "Clifford",
    "Age at 28 Aug": 25,
    "M/F": "M",
    "Sport": "Para-athletics",
    "Event(s)": "1500m, 5000m",
    "Classification": "T12",
    "Resident City": "Brunswick East",
    "State": "VIC",
    "Postcode": 3057,
    "Birth Place": "Greensborough"
  },
  {
    "Name": "Matthew",
    "Surname": "Clarke",
    "Age at 28 Aug": 29,
    "M/F": "M",
    "Sport": "Para-athletics",
    "Event(s)": "Guide – Jaryd Clifford",
    "Classification": "Guide",
    "Resident City": "North Adelaide",
    "State": "SA",
    "Postcode": 5006,
    "Birth Place": "East Melbourne"
  },
  {
    "Name": "Tim",
    "Surname": "Logan",
    "Age at 28 Aug": 28,
    "M/F": "M",
    "Sport": "Para-athletics",
    "Event(s)": "Guide – Jaryd Clifford",
    "Classification": "Guide",
    "Resident City": "Brunswick East",
    "State": "VIC",
    "Postcode": 3057,
    "Birth Place": "Melbourne"
  },
  {
    "Name": "Sarah",
    "Surname": "Clifton-Bligh",
    "Age at 28 Aug": 20,
    "M/F": "F",
    "Sport": "Para-athletics",
    "Event(s)": "Club Throw, Shot Put",
    "Classification": "T33, F32",
    "Resident City": "Haberfield",
    "State": "NSW",
    "Postcode": 2045,
    "Birth Place": "St Leonards"
  },
  {
    "Name": "Annabelle",
    "Surname": "Colman",
    "Age at 28 Aug": 20,
    "M/F": "F",
    "Sport": "Para-athletics",
    "Event(s)": "1500m",
    "Classification": "T20 (TaR)",
    "Resident City": "Fitzroy North",
    "State": "VIC",
    "Postcode": 3068,
    "Birth Place": "Switzerland"
  },
  {
    "Name": "Abby",
    "Surname": "Craswell",
    "Age at 28 Aug": 20,
    "M/F": "F",
    "Sport": "Para-athletics",
    "Event(s)": "100m",
    "Classification": "T36",
    "Resident City": "Carindale",
    "State": "QLD",
    "Postcode": 4152,
    "Birth Place": "Brisbane"
  },
  {
    "Name": "Dayna",
    "Surname": "Crees",
    "Age at 28 Aug": 22,
    "M/F": "F",
    "Sport": "Para-athletics",
    "Event(s)": "Javelin, Shot Put",
    "Classification": "F34",
    "Resident City": "Berwick",
    "State": "VIC",
    "Postcode": 3806,
    "Birth Place": "Noble Park"
  },
  {
    "Name": "Madison",
    "Surname": "de Rozario",
    "Age at 28 Aug": 30,
    "M/F": "F",
    "Sport": "Para-athletics",
    "Event(s)": "1500m, 5000m, Marathon",
    "Classification": "T53",
    "Resident City": "Sydney Olympic Park",
    "State": "NSW",
    "Postcode": 2127,
    "Birth Place": "Sterling"
  },
  {
    "Name": "Sarah",
    "Surname": "Edmiston",
    "Age at 28 Aug": 48,
    "M/F": "F",
    "Sport": "Para-athletics",
    "Event(s)": "Discus",
    "Classification": "F44",
    "Resident City": "Marangaroo",
    "State": "WA",
    "Postcode": 6064,
    "Birth Place": "New Zealand"
  },
  {
    "Name": "Jackson",
    "Surname": "Hamilton",
    "Age at 28 Aug": 21,
    "M/F": "M",
    "Sport": "Para-athletics",
    "Event(s)": "Javelin",
    "Classification": "F13",
    "Resident City": "Daglish",
    "State": "WA",
    "Postcode": 6008,
    "Birth Place": "Subiaco"
  },
  {
    "Name": "Guy",
    "Surname": "Henly",
    "Age at 28 Aug": 37,
    "M/F": "M",
    "Sport": "Para-athletics",
    "Event(s)": "Discus",
    "Classification": "F37",
    "Resident City": "Caulfield North",
    "State": "VIC",
    "Postcode": 3161,
    "Birth Place": "Westmead"
  },
  {
    "Name": "Angus",
    "Surname": "Hincksman",
    "Age at 28 Aug": 19,
    "M/F": "M",
    "Sport": "Para-athletics",
    "Event(s)": "1500m",
    "Classification": "T38",
    "Resident City": "Maslin Beach",
    "State": "SA",
    "Postcode": 5170,
    "Birth Place": "Adelaide"
  },
  {
    "Name": "Ella",
    "Surname": "Hose",
    "Age at 28 Aug": 19,
    "M/F": "F",
    "Sport": "Para-athletics",
    "Event(s)": "Shot Put, Discus",
    "Classification": "T37/F37",
    "Resident City": "Ringwood East",
    "State": "VIC",
    "Postcode": 3135,
    "Birth Place": "Melbourne"
  },
  {
    "Name": "Nicholas",
    "Surname": "Hum",
    "Age at 28 Aug": 31,
    "M/F": "M",
    "Sport": "Para-athletics",
    "Event(s)": "Long Jump",
    "Classification": "T20 (HozJ)",
    "Resident City": "Langwarrin",
    "State": "VIC",
    "Postcode": 3910,
    "Birth Place": "Carlton"
  },
  {
    "Name": "Reece",
    "Surname": "Langdon",
    "Age at 28 Aug": 28,
    "M/F": "M",
    "Sport": "Para-athletics",
    "Event(s)": "1500m",
    "Classification": "T38",
    "Resident City": "Glen Iris",
    "State": "VIC",
    "Postcode": 3146,
    "Birth Place": "Goulburn"
  },
  {
    "Name": "Rosemary",
    "Surname": "Little",
    "Age at 28 Aug": 42,
    "M/F": "F",
    "Sport": "Para-athletics",
    "Event(s)": "Club Throw, Shot Put",
    "Classification": "T33, F32",
    "Resident City": "West Pennant Hills",
    "State": "NSW",
    "Postcode": 2125,
    "Birth Place": "Mackay"
  },
  {
    "Name": "Mali",
    "Surname": "Lovell",
    "Age at 28 Aug": 20,
    "M/F": "F",
    "Sport": "Para-athletics",
    "Event(s)": "100m, 200m",
    "Classification": "T36/F36",
    "Resident City": "Allambie",
    "State": "NSW",
    "Postcode": 2100,
    "Birth Place": "North Sydney"
  },
  {
    "Name": "Vanessa",
    "Surname": "Low",
    "Age at 28 Aug": 34,
    "M/F": "F",
    "Sport": "Para-athletics",
    "Event(s)": "Long Jump T63",
    "Classification": "T61",
    "Resident City": "Bruce",
    "State": "ACT",
    "Postcode": 2617,
    "Birth Place": "Schwerin"
  },
  {
    "Name": "Rheed",
    "Surname": "McCracken",
    "Age at 28 Aug": 27,
    "M/F": "M",
    "Sport": "Para-athletics",
    "Event(s)": "100m, 800m",
    "Classification": "T34",
    "Resident City": "Newcastle",
    "State": "NSW",
    "Postcode": 2127,
    "Birth Place": "Bundaberg"
  },
  {
    "Name": "Sam",
    "Surname": "McIntosh",
    "Age at 28 Aug": 34,
    "M/F": "M",
    "Sport": "Para-athletics",
    "Event(s)": "100m, 400m",
    "Classification": "T52",
    "Resident City": "Ocean Grove",
    "State": "VIC",
    "Postcode": 3226,
    "Birth Place": "Geelong"
  },
  {
    "Name": "Ella",
    "Surname": "Pardy",
    "Age at 28 Aug": 33,
    "M/F": "F",
    "Sport": "Para-athletics",
    "Event(s)": "100m",
    "Classification": "T38",
    "Resident City": "Duncraig",
    "State": "WA",
    "Postcode": 6023,
    "Birth Place": "Great Britain"
  },
  {
    "Name": "Chad",
    "Surname": "Perris",
    "Age at 28 Aug": 32,
    "M/F": "M",
    "Sport": "Para-athletics",
    "Event(s)": "100m",
    "Classification": "T13",
    "Resident City": "Bruce",
    "State": "ACT",
    "Postcode": 2617,
    "Birth Place": "Port Hedland"
  },
  {
    "Name": "Samuel",
    "Surname": "Rizzo",
    "Age at 28 Aug": 24,
    "M/F": "M",
    "Sport": "Para-athletics",
    "Event(s)": "800m, 1500m, 5000m",
    "Classification": "T54",
    "Resident City": "Buninyong",
    "State": "VIC",
    "Postcode": 3357,
    "Birth Place": "Carlton"
  },
  {
    "Name": "Michael",
    "Surname": "Roeger",
    "Age at 28 Aug": 36,
    "M/F": "M",
    "Sport": "Para-athletics",
    "Event(s)": "1500m",
    "Classification": "T46",
    "Resident City": "Bruce",
    "State": "ACT",
    "Postcode": 2617,
    "Birth Place": "Woodville South"
  },
  {
    "Name": "Samantha",
    "Surname": "Schmidt",
    "Age at 28 Aug": 22,
    "M/F": "F",
    "Sport": "Para-athletics",
    "Event(s)": "Discus",
    "Classification": "F38",
    "Resident City": "Bundaberg North",
    "State": "QLD",
    "Postcode": 4670,
    "Birth Place": "Marsden"
  },
  {
    "Name": "Maria",
    "Surname": "Strong",
    "Age at 28 Aug": 53,
    "M/F": "F",
    "Sport": "Para-athletics",
    "Event(s)": "Shot Put",
    "Classification": "F33",
    "State": "VIC",
    "Birth Place": "East Melbourne"
  },
  {
    "Name": "James",
    "Surname": "Turner",
    "Age at 28 Aug": 28,
    "M/F": "M",
    "Sport": "Para-athletics",
    "Event(s)": "100m, 400m",
    "Classification": "T36",
    "Resident City": "Belconnen",
    "State": "ACT",
    "Postcode": 2617,
    "Birth Place": "Penrith"
  },
  {
    "Name": "Sarah",
    "Surname": "Walsh",
    "Age at 28 Aug": 26,
    "M/F": "F",
    "Sport": "Para-athletics",
    "Event(s)": "Long Jump",
    "Classification": "T64",
    "Resident City": "Bruce",
    "State": "ACT",
    "Postcode": 2617,
    "Birth Place": "Kogarah"
  },
  {
    "Name": "Mischa",
    "Surname": "Ginns",
    "Age at 28 Aug": 33,
    "M/F": "F",
    "Sport": "Para-badminton",
    "Event(s)": "Singles WH2",
    "Classification": "WH2",
    "Resident City": "Melbourne",
    "State": "VIC",
    "Postcode": 3196,
    "Birth Place": "South Africa"
  },
  {
    "Name": "Celine",
    "Surname": "Vinot",
    "Age at 28 Aug": 27,
    "M/F": "F",
    "Sport": "Para-badminton",
    "Event(s)": "Singles SL3",
    "Classification": "SL3",
    "Resident City": "Caulfield North",
    "State": "VIC",
    "Postcode": 3161,
    "Birth Place": "Clayton"
  },
  {
    "Name": "Dylan",
    "Surname": "Littlehales",
    "Age at 28 Aug": 24,
    "M/F": "M",
    "Sport": "Para-canoe",
    "Event(s)": "Single 200m",
    "Classification": "KL3",
    "Resident City": "Wamberal",
    "State": "NSW",
    "Postcode": 2260,
    "Birth Place": "Gosford"
  },
  {
    "Name": "Curtis",
    "Surname": "McGrath",
    "Age at 28 Aug": 36,
    "M/F": "M",
    "Sport": "Para-canoe",
    "Event(s)": "Single 200m, Single 200m",
    "Classification": "KL2, VL3",
    "Resident City": "Burleigh Waters",
    "State": "QLD",
    "Postcode": 4220,
    "Birth Place": "New Zealand"
  },
  {
    "Name": "Susan",
    "Surname": "Seipel",
    "Age at 28 Aug": 38,
    "M/F": "F",
    "Sport": "Para-canoe",
    "Event(s)": "Single 200m, Single 200m",
    "Classification": "KL2, VL2",
    "Resident City": "Tallai",
    "State": "QLD",
    "Postcode": 4213,
    "Birth Place": "Ipswich"
  },
  {
    "Name": "Gordon",
    "Surname": "Allan",
    "Age at 28 Aug": 26,
    "M/F": "M",
    "Sport": "Para-cycling\nRoad / Track",
    "Event(s)": "1000m TT,\nRoad Race",
    "Classification": "MC2",
    "Resident City": "Lalor Park",
    "State": "NSW",
    "Postcode": 2147,
    "Birth Place": "Westmead"
  },
  {
    "Name": "Korey",
    "Surname": "Boddington",
    "Age at 28 Aug": 28,
    "M/F": "M",
    "Sport": "Para-cycling Road / Track",
    "Event(s)": "1000m TT,\nRoad Race",
    "Classification": "MC4",
    "Resident City": "Hamilton",
    "State": "QLD",
    "Postcode": 4007,
    "Birth Place": "Nambour"
  },
  {
    "Name": "Alistair",
    "Surname": "Donohoe",
    "Age at 28 Aug": 29,
    "M/F": "M",
    "Sport": "Para-cycling Road / Track",
    "Event(s)": "4000m Individual Pursuit ITT, Road Race",
    "Classification": "MC5",
    "Resident City": "Brunswick",
    "State": "VIC",
    "Postcode": 3056,
    "Birth Place": "Nhulunbuy"
  },
  {
    "Name": "Alana",
    "Surname": "Forster",
    "Age at 28 Aug": 38,
    "M/F": "F",
    "Sport": "Para-cycling Road / Track",
    "Event(s)": "3000m Individual Pursuit, ITT, Road Race",
    "Classification": "WC5",
    "Resident City": "Ballarat",
    "State": "VIC",
    "Postcode": 3350,
    "Birth Place": "New Zealand"
  },
  {
    "Name": "Darren",
    "Surname": "Hicks",
    "Age at 28 Aug": 39,
    "M/F": "M",
    "Sport": "Para-cycling Road / Track",
    "Event(s)": "3000m Individual Pursuit, ITT, Road Race",
    "Classification": "MC2",
    "Resident City": "Happy Valley",
    "State": "SA",
    "Postcode": 5159,
    "Birth Place": "Darwin"
  },
  {
    "Name": "Meg",
    "Surname": "Lemon",
    "Age at 28 Aug": 34,
    "M/F": "F",
    "Sport": "Para-cycling\nRoad / Track",
    "Event(s)": "3000m Individual Pursuit,\nITT, Road Race",
    "Classification": "MC4",
    "Resident City": "Seacliff",
    "State": "SA",
    "Postcode": 5049,
    "Birth Place": "Ashford"
  },
  {
    "Name": "Emily",
    "Surname": "Petricola",
    "Age at 28 Aug": 44,
    "M/F": "F",
    "Sport": "Para-cycling Road / Track",
    "Event(s)": "3000m Individual Pursuit, ITT, Road Race",
    "Classification": "MB3",
    "Resident City": "Brunswick West",
    "State": "VIC",
    "Postcode": 3055,
    "Birth Place": "Melbourne"
  },
  {
    "Name": "Amanda",
    "Surname": "Reid",
    "Age at 28 Aug": 27,
    "M/F": "F",
    "Sport": "Para-cycling Road / Track",
    "Event(s)": "500m Time Trial, ITT, Road Race",
    "Classification": "WC4",
    "Resident City": "West Lakes",
    "State": "SA",
    "Postcode": 5021,
    "Birth Place": "Penrith"
  },
  {
    "Name": "Jess",
    "Surname": "Gallagher",
    "Age at 28 Aug": 38,
    "M/F": "F",
    "Sport": "Para-cycling - Track",
    "Event(s)": "1000m Tandem Time Trial, 3000m Tandem Pursuit",
    "Classification": "WB3",
    "Resident City": "Highton",
    "State": "VIC",
    "Postcode": 3216,
    "Birth Place": "Geelong"
  },
  {
    "Name": "Caitlin",
    "Surname": "Ward",
    "Age at 28 Aug": 30,
    "M/F": "F",
    "Sport": "Para-cycling - Track",
    "Event(s)": "Pilot – Jess Gallagher",
    "Classification": "Pilot",
    "Resident City": "West Lakes Shore",
    "State": "SA",
    "Postcode": 5020,
    "Birth Place": "Frankston"
  },
  {
    "Name": "Kane",
    "Surname": "Perris",
    "Age at 28 Aug": 27,
    "M/F": "M",
    "Sport": "Para-cycling - Track",
    "Event(s)": "1000m Tandem Time Trial",
    "Classification": "WH3",
    "Resident City": "Hamersely",
    "State": "WA",
    "Postcode": 6022,
    "Birth Place": "Mount Lawley"
  },
  {
    "Name": "Luke",
    "Surname": "Zaccaria",
    "Age at 28 Aug": 31,
    "M/F": "M",
    "Sport": "Para-cycling - Track",
    "Event(s)": "Pilot – Luke Zaccaria",
    "Classification": "Pilot",
    "Resident City": "Perth",
    "State": "WA",
    "Postcode": 6065,
    "Birth Place": "Kalamunda"
  },
  {
    "Name": "Dianne",
    "Surname": "Barnes",
    "Age at 28 Aug": 66,
    "M/F": "F",
    "Sport": "Para-equestrian",
    "Event(s)": "Grand Prix Test, Freestyle Grand Prix",
    "Classification": "Grade IV",
    "Resident City": "Red Hill South",
    "State": "VIC",
    "Postcode": 3937,
    "Birth Place": "Hastings"
  },
  {
    "Name": "Stella",
    "Surname": "Barton",
    "Age at 28 Aug": 25,
    "M/F": "F",
    "Sport": "Para-equestrian",
    "Event(s)": "Grand Prix Test, Freestyle Grand Prix",
    "Classification": "Grade I",
    "Resident City": "Windsor",
    "State": "VIC",
    "Postcode": 3181,
    "Birth Place": "Melbourne"
  },
  {
    "Name": "Lisa",
    "Surname": "Martin",
    "Age at 28 Aug": 52,
    "M/F": "F",
    "Sport": "Para-equestrian",
    "Event(s)": "Grand Prix Test, Freestyle Grand Prix",
    "Classification": "Grade V",
    "Resident City": "Wallalong",
    "State": "NSW",
    "Postcode": 2320,
    "Birth Place": "Newcastle"
  },
  {
    "Name": "Bridget",
    "Surname": "Murphy",
    "Age at 28 Aug": 36,
    "M/F": "F",
    "Sport": "Para-equestrian",
    "Event(s)": "Grand Prix Test,\nFreestyle Grand Prix",
    "Classification": "Grade II",
    "Resident City": "Healesville",
    "State": "VIC",
    "Postcode": 3777,
    "Birth Place": "Upper Ferntree\nGully"
  },
  {
    "Name": "Taylor",
    "Surname": "Gosens",
    "Age at 28 Aug": 26,
    "M/F": "F",
    "Sport": "Para-judo",
    "Event(s)": "+70kg",
    "Classification": "J2",
    "Resident City": "Wentworth Point",
    "State": "NSW",
    "Postcode": 2116,
    "Birth Place": "Herston"
  },
  {
    "Name": "Jed",
    "Surname": "Altschwager",
    "Age at 28 Aug": 37,
    "M/F": "M",
    "Sport": "Para-rowing",
    "Event(s)": "Mixed Double Scull",
    "Classification": "PR3",
    "Resident City": "Largs Bay",
    "State": "SA",
    "Postcode": 5016,
    "Birth Place": "Millicent"
  },
  {
    "Name": "Nikki",
    "Surname": "Ayers",
    "Age at 28 Aug": 33,
    "M/F": "F",
    "Sport": "Para-rowing",
    "Event(s)": "Mixed Double Scull",
    "Classification": "PR3",
    "Resident City": "Flinders Park",
    "State": "SA",
    "Postcode": 5025,
    "Birth Place": "Gove"
  },
  {
    "Name": "Thomas",
    "Surname": "Birtwhistle",
    "Age at 28 Aug": 31,
    "M/F": "M",
    "Sport": "Para-rowing",
    "Event(s)": "Mixed Coxed Four",
    "Classification": "PR3",
    "Resident City": "Lane Cove",
    "State": "NSW",
    "Postcode": 2066,
    "Birth Place": "St Leonards"
  },
  {
    "Name": "Hannah",
    "Surname": "Cowap",
    "Age at 28 Aug": 22,
    "M/F": "F",
    "Sport": "Para-rowing",
    "Event(s)": "Mixed Coxed Four",
    "Classification": "N/A",
    "Resident City": "Hunters Hill",
    "State": "NSW",
    "Postcode": 2110,
    "Birth Place": "Sandton"
  },
  {
    "Name": "Toby",
    "Surname": "Goffsassen",
    "Age at 28 Aug": 18,
    "M/F": "M",
    "Sport": "Para-rowing",
    "Event(s)": "Mixed Coxed Four",
    "Classification": "PR3",
    "Resident City": "Ashmore",
    "State": "QLD",
    "Postcode": 4214,
    "Birth Place": "Randwick"
  },
  {
    "Name": "Erik",
    "Surname": "Horrie",
    "Age at 28 Aug": 44,
    "M/F": "M",
    "Sport": "Para-rowing",
    "Event(s)": "Single Scull",
    "Classification": "PR1",
    "Resident City": "Southport",
    "State": "QLD",
    "Postcode": 4215,
    "Birth Place": "New Zealand"
  },
  {
    "Name": "Susannah",
    "Surname": "Lutze",
    "Age at 28 Aug": 20,
    "M/F": "F",
    "Sport": "Para-rowing",
    "Event(s)": "Mixed Coxed Four",
    "Classification": "PR3",
    "Resident City": "Surrey Hills",
    "State": "VIC",
    "Postcode": 3127,
    "Birth Place": "Irvine"
  },
  {
    "Name": "Alexandra",
    "Surname": "Viney",
    "Age at 28 Aug": 32,
    "M/F": "F",
    "Sport": "Para-rowing",
    "Event(s)": "Mixed Coxed Four",
    "Classification": "PR3",
    "Resident City": "Hawthorn",
    "State": "VIC",
    "Postcode": 3122,
    "Birth Place": "Launceston"
  },
  {
    "Name": "Natalie",
    "Surname": "Smith",
    "Age at 28 Aug": 49,
    "M/F": "F",
    "Sport": "Para-shooting",
    "Event(s)": "R2 10m Air Rifle Standing R8 50m Rifle 3 Position",
    "Classification": "SH1",
    "Resident City": "Meadowbrook",
    "State": "QLD",
    "Postcode": 4131,
    "Birth Place": "Ivanhoe"
  },
  {
    "Name": "Anton",
    "Surname": "Zappelli",
    "Age at 28 Aug": 52,
    "M/F": "M",
    "Sport": "Para-shooting",
    "Event(s)": "R3 10m Air Rifle Prone\nR6 50m Rifle Prone",
    "Classification": "SH1",
    "Resident City": "Willagee",
    "State": "WA",
    "Postcode": 6156,
    "Birth Place": "Mullewa"
  },
  {
    "Name": "Jesse",
    "Surname": "Aungles",
    "Age at 28 Aug": 29,
    "M/F": "M",
    "Sport": "Para-swimming",
    "Event(s)": "100m Back",
    "Classification": "S8",
    "Resident City": "Canberra City",
    "State": "ACT",
    "Postcode": 2601,
    "Birth Place": "North Adelaide"
  },
  {
    "Name": "Emily",
    "Surname": "Beecroft",
    "Age at 28 Aug": 24,
    "M/F": "F",
    "Sport": "Para-swimming",
    "Event(s)": "100m Free, 100m Fly",
    "Classification": "S9",
    "Resident City": "Pacific Paradise",
    "State": "QLD",
    "Postcode": 4564,
    "Birth Place": "Traralgon"
  },
  {
    "Name": "Ricky",
    "Surname": "Betar",
    "Age at 28 Aug": 20,
    "M/F": "M",
    "Sport": "Para-swimming",
    "Event(s)": "200m Free, 200m IM,\n200m Back",
    "Classification": "S14, SB14, SM14",
    "Resident City": "Morayfield",
    "State": "QLD",
    "Postcode": 4506,
    "Birth Place": "Japan"
  },
  {
    "Name": "Lewis",
    "Surname": "Bishop",
    "Age at 28 Aug": 19,
    "M/F": "M",
    "Sport": "Para-swimming",
    "Event(s)": "100m Butterfly",
    "Classification": "S9",
    "Resident City": "Upper Mt Gravatt",
    "State": "QLD",
    "Postcode": 4122,
    "Birth Place": "Nhulunbuy"
  },
  {
    "Name": "Rowan",
    "Surname": "Crothers",
    "Age at 28 Aug": 26,
    "M/F": "M",
    "Sport": "Para-swimming",
    "Event(s)": "50m Free, 100m Free",
    "Classification": "S10,SB9,SM10",
    "Resident City": "Moorooka",
    "State": "QLD",
    "Postcode": 4105,
    "Birth Place": "Gosford"
  },
  {
    "Name": "Katja",
    "Surname": "Dedekind",
    "Age at 28 Aug": 23,
    "M/F": "F",
    "Sport": "Para-swimming",
    "Event(s)": "50m Free",
    "Classification": "S13",
    "Resident City": "Yeronga",
    "State": "QLD",
    "Postcode": 4104,
    "Birth Place": "Durban"
  },
  {
    "Name": "Thomas",
    "Surname": "Gallagher",
    "Age at 28 Aug": 25,
    "M/F": "M",
    "Sport": "Para-swimming",
    "Event(s)": "50m Free, 100m Free, 100m Back",
    "Classification": "S10",
    "Resident City": "Mountain Creek",
    "State": "QLD",
    "Postcode": 4223,
    "Birth Place": "Bridgend"
  },
  {
    "Name": "Jasmine",
    "Surname": "Greenwood",
    "Age at 28 Aug": 19,
    "M/F": "F",
    "Sport": "Para-swimming",
    "Event(s)": "50m Free, 100m Fly\n100m Back, 200m IM",
    "Classification": "S10,SB9,SM10",
    "Resident City": "Sussex Inlet",
    "State": "NSW",
    "Postcode": 2540,
    "Birth Place": "Figtree"
  },
  {
    "Name": "Brenden",
    "Surname": "Hall",
    "Age at 28 Aug": 31,
    "M/F": "M",
    "Sport": "Para-swimming",
    "Event(s)": "100m Back, 100m Fly,\n400m Free",
    "Classification": "S9",
    "Resident City": "Palmview",
    "State": "QLD",
    "Postcode": 4553,
    "Birth Place": "Nambour"
  },
  {
    "Name": "Ben",
    "Surname": "Hance",
    "Age at 28 Aug": 24,
    "M/F": "M",
    "Sport": "Para-swimming",
    "Event(s)": "100m Fly, 100m Back",
    "Classification": "S14,SB14,SM14",
    "Resident City": "Mountain Creek",
    "State": "QLD",
    "Postcode": 4557,
    "Birth Place": "Carlton"
  },
  {
    "Name": "Timothy",
    "Surname": "Hodge",
    "Age at 28 Aug": 23,
    "M/F": "M",
    "Sport": "Para-swimming",
    "Event(s)": "100m Fly, 100m Breast 100m Back, 200m IM,\n400m Free",
    "Classification": "S9,SB8,SM9",
    "Resident City": "Kings Langley",
    "State": "NSW",
    "Postcode": 2147,
    "Birth Place": "Baulkham Hills"
  },
  {
    "Name": "Jack",
    "Surname": "Ireland",
    "Age at 28 Aug": 25,
    "M/F": "M",
    "Sport": "Para-swimming",
    "Event(s)": "200m Free",
    "Classification": "S14,SB14,SM14",
    "Resident City": "Corinda",
    "State": "QLD",
    "Postcode": 4075,
    "Birth Place": "Newcastle"
  },
  {
    "Name": "Ella",
    "Surname": "Jones",
    "Age at 28 Aug": 23,
    "M/F": "F",
    "Sport": "Para-swimming",
    "Event(s)": "100m Back, 400m Free",
    "Classification": "S8 SB6 SM8",
    "Resident City": "Northgate",
    "State": "SA",
    "Postcode": 5085,
    "Birth Place": "Penrith"
  },
  {
    "Name": "Jenna",
    "Surname": "Jones",
    "Age at 28 Aug": 23,
    "M/F": "F",
    "Sport": "Para-swimming",
    "Event(s)": "100m Back, 100m Free,\n100m Breast",
    "Classification": "S12, SB12, SM12",
    "Resident City": "Buderim",
    "State": "QLD",
    "Postcode": 4556,
    "Birth Place": "Maitland"
  },
  {
    "Name": "Ahmed",
    "Surname": "Kelly",
    "Age at 28 Aug": 32,
    "M/F": "M",
    "Sport": "Para-swimming",
    "Event(s)": "50m Free, 50m Back, 150m IM",
    "Classification": "S3,SB3,SM3",
    "Resident City": "Greensborough",
    "State": "VIC",
    "Postcode": 3088,
    "Birth Place": "Iraq"
  },
  {
    "Name": "Alexa",
    "Surname": "Leary",
    "Age at 28 Aug": 23,
    "M/F": "F",
    "Sport": "Para-swimming",
    "Event(s)": "50m Free, 100m Free",
    "Classification": "S9,SB8,SM9",
    "Resident City": "Surfers Paradise",
    "State": "QLD",
    "Postcode": 4217,
    "Birth Place": "Benowa"
  },
  {
    "Name": "Paige",
    "Surname": "Leonhardt",
    "Age at 28 Aug": 23,
    "M/F": "F",
    "Sport": "Para-swimming",
    "Event(s)": "100m Fly, 100m Breast, 200m Medley",
    "Classification": "S14,SB14,SM14",
    "Resident City": "Thornlands",
    "State": "QLD",
    "Postcode": 4164,
    "Birth Place": "Penrith"
  },
  {
    "Name": "Maddie",
    "Surname": "McTernan",
    "Age at 28 Aug": 23,
    "M/F": "F",
    "Sport": "Para-swimming",
    "Event(s)": "200m Free, 100m Back",
    "Classification": "S14,SB14,SM14",
    "Resident City": "Arundel",
    "State": "QLD",
    "Postcode": 4214,
    "Birth Place": "Nambour"
  },
  {
    "Name": "Jake",
    "Surname": "Michel",
    "Age at 28 Aug": 26,
    "M/F": "M",
    "Sport": "Para-swimming",
    "Event(s)": "100m Breast",
    "Classification": "S14,SB14,SM14",
    "Resident City": "Birkdale",
    "State": "QLD",
    "Postcode": 4159,
    "Birth Place": "Brisbane"
  },
  {
    "Name": "Chloe",
    "Surname": "Osborn",
    "Age at 28 Aug": 20,
    "M/F": "F",
    "Sport": "Para-swimming",
    "Event(s)": "400m Free, 100m Free",
    "Classification": "S7,SB6,SM7",
    "Resident City": "Gables",
    "State": "NSW",
    "Postcode": 2765,
    "Birth Place": "Westmead"
  },
  {
    "Name": "Grant",
    "Surname": "Patterson",
    "Age at 28 Aug": 35,
    "M/F": "M",
    "Sport": "Para-swimming",
    "Event(s)": "150m IM, 50m Breast,\n200m Free",
    "Classification": "S3,SB2,SM3",
    "Resident City": "Mt. Sheridan",
    "State": "QLD",
    "Postcode": 4868,
    "Birth Place": "Cairns"
  },
  {
    "Name": "Lakeisha",
    "Surname": "Patterson",
    "Age at 28 Aug": 25,
    "M/F": "F",
    "Sport": "Para-swimming",
    "Event(s)": "100m Free, 200m IM",
    "Classification": "S9,SB8,SM9",
    "Resident City": "Caboolture",
    "State": "QLD",
    "Postcode": 4510,
    "Birth Place": "Wodonga"
  },
  {
    "Name": "Col",
    "Surname": "Pearse",
    "Age at 28 Aug": 21,
    "M/F": "M",
    "Sport": "Para-swimming",
    "Event(s)": "100m Fly, 200m IM",
    "Classification": "S10,SB9,SM10",
    "Resident City": "Windsor",
    "State": "VIC",
    "Postcode": 3181,
    "Birth Place": "Echuca"
  },
  {
    "Name": "Alex",
    "Surname": "Saffy",
    "Age at 28 Aug": 18,
    "M/F": "M",
    "Sport": "Para-swimming",
    "Event(s)": "100m Free, 100m Fly,\n200m IM",
    "Classification": "S10,SB9,SM10",
    "Resident City": "Bruce",
    "State": "ACT",
    "Postcode": 2617,
    "Birth Place": "Port Elizabeth"
  },
  {
    "Name": "Callum",
    "Surname": "Simpson",
    "Age at 28 Aug": 17,
    "M/F": "M",
    "Sport": "Para-swimming",
    "Event(s)": "400m Free, 100m Free",
    "Classification": "S8, SB8, SM8",
    "Resident City": "Maroochydore",
    "State": "QLD",
    "Postcode": 4558,
    "Birth Place": "Plymouth"
  },
  {
    "Name": "Keira",
    "Surname": "Stephens",
    "Age at 28 Aug": 21,
    "M/F": "F",
    "Sport": "Para-swimming",
    "Event(s)": "100m Breast, 200m IM",
    "Classification": "S10,SB9,SM10",
    "Resident City": "Robina",
    "State": "QLD",
    "Postcode": 4226,
    "Birth Place": "Poole"
  },
  {
    "Name": "Ruby",
    "Surname": "Storm",
    "Age at 28 Aug": 20,
    "M/F": "F",
    "Sport": "Para-swimming",
    "Event(s)": "100m Breast, 200m Free",
    "Classification": "S14,SB14,SM14",
    "Resident City": "Palmview",
    "State": "QLD",
    "Postcode": 4553,
    "Birth Place": "Upper Ferntree\nGully"
  },
  {
    "Name": "Holly",
    "Surname": "Warn",
    "Age at 28 Aug": 15,
    "M/F": "F",
    "Sport": "Para-swimming",
    "Event(s)": "100m Free, 400m Free",
    "Classification": "S7 SB7 SM7",
    "Resident City": "Broadbeach Waters",
    "State": "QLD",
    "Postcode": 4218,
    "Birth Place": "North Sydney"
  },
  {
    "Name": "Rachael",
    "Surname": "Watson",
    "Age at 28 Aug": 32,
    "M/F": "F",
    "Sport": "Para-swimming",
    "Event(s)": "50m Free, 100m Free",
    "Classification": "S3 SB2 SM3",
    "Resident City": "Manly",
    "State": "QLD",
    "Postcode": 4179,
    "Birth Place": "Brisbane"
  },
  {
    "Name": "Poppy",
    "Surname": "Wilson",
    "Age at 28 Aug": 20,
    "M/F": "F",
    "Sport": "Para-swimming",
    "Event(s)": "100m Free, 100m Fly,\n400m Free",
    "Classification": "S10,SB9,SM10",
    "Resident City": "Redbank Plains",
    "State": "QLD",
    "Postcode": 4301,
    "Birth Place": "Ipswich"
  },
  {
    "Name": "Chris",
    "Surname": "Addis",
    "Age at 28 Aug": 35,
    "M/F": "M",
    "Sport": "Para-table tennis",
    "Event(s)": "Mixed Doubles (Standing),\nMens Doubles (Wheelchair),\nSingles (Standing)",
    "Classification": "TT4",
    "Resident City": "Harkness",
    "State": "VIC",
    "Postcode": 3337,
    "Birth Place": "Bacchus Marsh"
  },
  {
    "Name": "Junjian (Jessy)",
    "Surname": "Chen",
    "Age at 28 Aug": 34,
    "M/F": "M",
    "Sport": "Para-table tennis",
    "Event(s)": "Mens Doubles (Wheelchair), Mixed Doubles (Wheelchair),\nMens Doubles (Standing), Mixed Doubles (Standing), Singles (Wheelchair)",
    "Classification": "TT3",
    "Resident City": "Ermington",
    "State": "NSW",
    "Postcode": 2115,
    "Birth Place": "Guangdong"
  },
  {
    "Name": "Danni",
    "Surname": "Di Toro",
    "Age at 28 Aug": 49,
    "M/F": "F",
    "Sport": "Para-table tennis",
    "Event(s)": "Womens Doubles (Wheelchair),\nMixed Doubles (Wheelchair),\nMixed Doubles (Standing), Singles (Wheelchair)",
    "Classification": "TT4",
    "Resident City": "Brunswick",
    "State": "VIC",
    "Postcode": 3056,
    "Birth Place": "Melbourne"
  },
  {
    "Name": "Trevor",
    "Surname": "Hirth",
    "Age at 28 Aug": 40,
    "M/F": "M",
    "Sport": "Para-table tennis",
    "Event(s)": "Mixed Doubles (Wheelchair),\nMixed Doubles (Standing), Singles (Standing) MS6",
    "Classification": "TT6",
    "Resident City": "Sydenham",
    "State": "VIC",
    "Postcode": 3037,
    "Birth Place": "East Melbourne"
  },
  {
    "Name": "Jimmy",
    "Surname": "Huo",
    "Age at 28 Aug": 69,
    "M/F": "M",
    "Sport": "Para-table tennis",
    "Event(s)": "Singles (Wheelchair), Singles (Standing)",
    "Classification": "TT5",
    "Resident City": "Marsfield",
    "State": "NSW",
    "Postcode": 2122
  },
  {
    "Name": "Lina",
    "Surname": "Lei",
    "Age at 28 Aug": 36,
    "M/F": "F",
    "Sport": "Para-table tennis",
    "Event(s)": "Mixed Doubles\n(Wheelchair), Womens Doubles (Standing),\nSingles (Standing)",
    "Classification": "TT9",
    "Resident City": "Templestowe",
    "State": "VIC",
    "Postcode": 3106,
    "Birth Place": "People's Republic of China"
  },
  {
    "Name": "Lin",
    "Surname": "Ma",
    "Age at 28 Aug": 34,
    "M/F": "M",
    "Sport": "Para-table tennis",
    "Event(s)": "Mixed Doubles (Standing), Singles (Standing)",
    "Classification": "TT9",
    "Resident City": "Wheelers Hill",
    "State": "VIC",
    "Postcode": 3150,
    "Birth Place": "People's Republic of China"
  },
  {
    "Name": "Nathan",
    "Surname": "Pellissier",
    "Age at 28 Aug": 28,
    "M/F": "M",
    "Sport": "Para-table tennis",
    "Event(s)": "Mixed Doubles (Standing), Mens Doubles (Standing), Singles (Standing)",
    "Classification": "TT8",
    "Resident City": "Williamstown",
    "State": "VIC",
    "Postcode": 3016,
    "Birth Place": "East Melbourne"
  },
  {
    "Name": "Hayley",
    "Surname": "Sands",
    "Age at 28 Aug": 24,
    "M/F": "F",
    "Sport": "Para-table tennis",
    "Event(s)": "Womens Doubles (Wheelchair),\nMixed Doubles (Wheelchair),\nSingles (Wheelchair)",
    "Classification": "TT2",
    "Resident City": "Edwardstown",
    "State": "SA",
    "Postcode": 5039,
    "Birth Place": "Ashford"
  },
  {
    "Name": "Melissa",
    "Surname": "Tapper",
    "Age at 28 Aug": 34,
    "M/F": "F",
    "Sport": "Para-table tennis",
    "Event(s)": "Mixed Doubles (Standing), Singles (Standing)",
    "Classification": "TT10",
    "Resident City": "South Melbourne",
    "State": "VIC",
    "Postcode": 3205,
    "Birth Place": "Hamilton"
  },
  {
    "Name": "Sam",
    "Surname": "von Einem",
    "Age at 28 Aug": 29,
    "M/F": "M",
    "Sport": "Para-table tennis",
    "Event(s)": "Singles (Standing)",
    "Classification": "TT11",
    "Resident City": "Glengowrie",
    "State": "SA",
    "Postcode": 5044,
    "Birth Place": "Ashford"
  },
  {
    "Name": "Qian",
    "Surname": "Yang",
    "Age at 28 Aug": 28,
    "M/F": "F",
    "Sport": "Para-table tennis",
    "Event(s)": "Womens Doubles (Standing), Singles (Standing)",
    "Classification": "TT10",
    "Resident City": "Ringwood",
    "State": "VIC",
    "Postcode": 3134,
    "Birth Place": "People's Republic of China"
  },
  {
    "Name": "Nic",
    "Surname": "Beveridge",
    "Age at 28 Aug": 38,
    "M/F": "M",
    "Sport": "Para-triathlon",
    "Classification": "PTWC1",
    "Resident City": "Mount Pleasant",
    "State": "QLD",
    "Postcode": 4740,
    "Birth Place": "Southport"
  },
  {
    "Name": "Grace",
    "Surname": "Brimelow",
    "Age at 28 Aug": 17,
    "M/F": "F",
    "Sport": "Para-triathlon",
    "Classification": "PTS4",
    "Resident City": "Woombye",
    "State": "QLD",
    "Postcode": 4559,
    "Birth Place": "Nambour"
  },
  {
    "Name": "David",
    "Surname": "Bryant",
    "Age at 28 Aug": 35,
    "M/F": "M",
    "Sport": "Para-triathlon",
    "Classification": "PTS5",
    "Resident City": "Floreat",
    "State": "WA",
    "Postcode": 6014,
    "Birth Place": "Gold Coast"
  },
  {
    "Name": "Anu",
    "Surname": "Francis",
    "Age at 28 Aug": 28,
    "M/F": "F",
    "Sport": "Para-triathlon",
    "Classification": "PTS2",
    "Resident City": "Christies Beach",
    "State": "SA",
    "Postcode": 5165,
    "Birth Place": "Cairns"
  },
  {
    "Name": "Justin",
    "Surname": "Godfrey",
    "Age at 28 Aug": 50,
    "M/F": "M",
    "Sport": "Para-triathlon",
    "Classification": "PTS3",
    "Resident City": "Albury",
    "State": "NSW",
    "Postcode": 2640,
    "Birth Place": "Carlton"
  },
  {
    "Name": "Thomas",
    "Surname": "Goodman",
    "Age at 28 Aug": 33,
    "M/F": "M",
    "Sport": "Para-triathlon",
    "Classification": "PTS2",
    "Resident City": "St Peters",
    "State": "SA",
    "Postcode": 5069,
    "Birth Place": "Malvern"
  },
  {
    "Name": "Sam",
    "Surname": "Harding",
    "Age at 28 Aug": 33,
    "M/F": "M",
    "Sport": "Para-triathlon",
    "Classification": "PTVI2",
    "Resident City": "Bruce",
    "State": "ACT",
    "Postcode": 2617,
    "Birth Place": "Attadale"
  },
  {
    "Name": "Jack",
    "Surname": "Howell",
    "Age at 28 Aug": 20,
    "M/F": "M",
    "Sport": "Para-triathlon",
    "Classification": "PTS5",
    "Resident City": "Southport",
    "State": "QLD",
    "Postcode": 4215,
    "Birth Place": "Canberra"
  },
  {
    "Name": "Jeremy",
    "Surname": "Peacock",
    "Age at 28 Aug": 33,
    "M/F": "M",
    "Sport": "Para-triathlon",
    "Classification": "PTS4",
    "Resident City": "Leopold",
    "State": "VIC",
    "Postcode": 3224,
    "Birth Place": "Sandton"
  },
  {
    "Name": "Sally",
    "Surname": "Pilbeam",
    "Age at 28 Aug": 46,
    "M/F": "F",
    "Sport": "Para-triathlon",
    "Classification": "PTS4",
    "Resident City": "Edgewater",
    "State": "WA",
    "Postcode": 6027,
    "Birth Place": "Duncraig"
  },
  {
    "Name": "Aaron",
    "Surname": "Royle",
    "Age at 28 Aug": 34,
    "M/F": "M",
    "Sport": "Para-triathlon",
    "Event(s)": "Guide – Sam Harding",
    "Classification": "Guide",
    "Resident City": "Leeds",
    "State": "UK",
    "Birth Place": "Newcastle"
  },
  {
    "Name": "Liam",
    "Surname": "Twomey",
    "Age at 28 Aug": 30,
    "M/F": "M",
    "Sport": "Para-triathlon",
    "Classification": "PTS4",
    "Resident City": "Carnegie",
    "State": "VIC",
    "Postcode": 3163,
    "Birth Place": "Malvern"
  },
  {
    "Name": "Lauren",
    "Surname": "Parker",
    "Age at 28 Aug": 35,
    "M/F": "F",
    "Sport": "Para-triathlon,\nPara-cycling - Road",
    "Event(s)": "Triathlon,\nITT, Road Race",
    "Classification": "PTWC1 | H3",
    "Resident City": "Chisholm",
    "State": "NSW",
    "Postcode": 2322,
    "Birth Place": "Belmont"
  },
  {
    "Name": "Hani",
    "Surname": "Watson",
    "Age at 28 Aug": 41,
    "M/F": "F",
    "Sport": "Powerlifting",
    "Event(s)": "+86kg Open",
    "Classification": "PO",
    "Resident City": "Hemmant",
    "State": "QLD",
    "Postcode": 4174,
    "Birth Place": "New Zealand"
  },
  {
    "Name": "Ben",
    "Surname": "Wright",
    "Age at 28 Aug": 37,
    "M/F": "M",
    "Sport": "Powerlifting",
    "Event(s)": "-88kg Open",
    "Classification": "PO",
    "Resident City": "Coodanup",
    "State": "WA",
    "Postcode": 6210,
    "Birth Place": "Viveash"
  },
  {
    "Name": "Jannik",
    "Surname": "Blair",
    "Age at 28 Aug": 32,
    "M/F": "M",
    "Sport": "Wheelchair Basketball",
    "Classification": 1,
    "Resident City": "Horsham",
    "State": "VIC",
    "Postcode": 3400,
    "Birth Place": "Horsham"
  },
  {
    "Name": "Jaylen",
    "Surname": "Brown",
    "Age at 28 Aug": 19,
    "M/F": "M",
    "Sport": "Wheelchair Basketball",
    "Classification": 4,
    "Resident City": "Dennington",
    "State": "VIC",
    "Postcode": 3280,
    "Birth Place": "Warrnambool"
  },
  {
    "Name": "Phil",
    "Surname": "Evans",
    "Age at 28 Aug": 33,
    "M/F": "M",
    "Sport": "Wheelchair Basketball",
    "Classification": 2,
    "Resident City": "Woodvale",
    "State": "WA",
    "Postcode": 6026,
    "Birth Place": "Perth"
  },
  {
    "Name": "Tristan",
    "Surname": "Knowles",
    "Age at 28 Aug": 41,
    "M/F": "M",
    "Sport": "Wheelchair Basketball",
    "Classification": 4,
    "Resident City": "Bellambi",
    "State": "NSW",
    "Postcode": 2518,
    "Birth Place": "Wodonga"
  },
  {
    "Name": "Bill",
    "Surname": "Latham",
    "Age at 28 Aug": 34,
    "M/F": "M",
    "Sport": "Wheelchair Basketball",
    "Classification": 4,
    "Resident City": "South West Rocks",
    "State": "NSW",
    "Postcode": 2431,
    "Birth Place": "Coffs Harbour"
  },
  {
    "Name": "Eithen",
    "Surname": "Leard",
    "Age at 28 Aug": 18,
    "M/F": "M",
    "Sport": "Wheelchair Basketball",
    "Classification": 2,
    "Resident City": "Forest Lake",
    "State": "QLD",
    "Postcode": 4078,
    "Birth Place": "Mackay"
  },
  {
    "Name": "Thomas",
    "Surname": "McHugh",
    "Age at 28 Aug": 22,
    "M/F": "M",
    "Sport": "Wheelchair Basketball",
    "Classification": 4.5,
    "Resident City": "Aveley",
    "State": "WA",
    "Postcode": 6069,
    "Birth Place": "Middle Swan"
  },
  {
    "Name": "Shaun",
    "Surname": "Norris",
    "Age at 28 Aug": 39,
    "M/F": "M",
    "Sport": "Wheelchair Basketball",
    "Classification": 3,
    "Resident City": "Banksia Grove",
    "State": "WA",
    "Postcode": 6031,
    "Birth Place": "Brisbane"
  },
  {
    "Name": "Tom",
    "Surname": "O'Neill- Thorne",
    "Age at 28 Aug": 27,
    "M/F": "M",
    "Sport": "Wheelchair Basketball",
    "Classification": 3,
    "Resident City": "Nightcliff",
    "State": "NT",
    "Postcode": 810,
    "Birth Place": "Nhulunbuy"
  },
  {
    "Name": "Frank",
    "Surname": "Pinder",
    "Age at 28 Aug": 23,
    "M/F": "M",
    "Sport": "Wheelchair Basketball",
    "Classification": 1,
    "Resident City": "Perth",
    "State": "WA",
    "Postcode": 6005,
    "Birth Place": "Subiaco"
  },
  {
    "Name": "Luke",
    "Surname": "Pople",
    "Age at 28 Aug": 33,
    "M/F": "M",
    "Sport": "Wheelchair Basketball",
    "Classification": 2.5,
    "Resident City": "Koonawarra",
    "State": "NSW",
    "Postcode": 2530,
    "Birth Place": "Wollongong"
  },
  {
    "Name": "Sammy",
    "Surname": "White",
    "Age at 28 Aug": 37,
    "M/F": "M",
    "Sport": "Wheelchair Basketball",
    "Classification": 1,
    "Resident City": "Upper Sturt",
    "State": "SA",
    "Postcode": 5156,
    "Birth Place": "Frankston"
  },
  {
    "Name": "Ryley",
    "Surname": "Batt",
    "Age at 28 Aug": 35,
    "M/F": "M",
    "Sport": "Wheelchair Rugby",
    "Classification": 3.5,
    "Resident City": "Bli Bli",
    "State": "QLD",
    "Postcode": 4560,
    "Birth Place": "Port Macquarie"
  },
  {
    "Name": "Chris",
    "Surname": "Bond",
    "Age at 28 Aug": 38,
    "M/F": "M",
    "Sport": "Wheelchair Rugby",
    "Classification": 3.5,
    "Resident City": "Baringa",
    "State": "QLD",
    "Postcode": 4551,
    "Birth Place": "Frankston"
  },
  {
    "Name": "Andrew",
    "Surname": "Edmondson",
    "Age at 28 Aug": 34,
    "M/F": "M",
    "Sport": "Wheelchair Rugby",
    "Classification": 2,
    "Resident City": "Port Macquarie",
    "State": "NSW",
    "Postcode": 2444,
    "Birth Place": "Paddington"
  },
  {
    "Name": "Ben",
    "Surname": "Fawcett",
    "Age at 28 Aug": 33,
    "M/F": "M",
    "Sport": "Wheelchair Rugby",
    "Classification": 0.5,
    "Resident City": "Airport West",
    "State": "VIC",
    "Postcode": 3042,
    "Birth Place": "Bacchus Marsh"
  },
  {
    "Name": "Brayden",
    "Surname": "Foxley\nConolly",
    "Age at 28 Aug": 20,
    "M/F": "M",
    "Sport": "Wheelchair Rugby",
    "Classification": 3.5,
    "Resident City": "West Mackay",
    "State": "QLD",
    "Postcode": 4740,
    "Birth Place": "Mackay\nQueensland"
  },
  {
    "Name": "Shae",
    "Surname": "Graham",
    "Age at 28 Aug": 37,
    "M/F": "F",
    "Sport": "Wheelchair Rugby",
    "Classification": 2.5,
    "Resident City": "Moonee Ponds",
    "State": "VIC",
    "Postcode": 3039,
    "Birth Place": "Darwin"
  },
  {
    "Name": "Jake",
    "Surname": "Howe",
    "Age at 28 Aug": 33,
    "M/F": "M",
    "Sport": "Wheelchair Rugby",
    "Classification": 1,
    "Resident City": "Haynes",
    "State": "WA",
    "Postcode": 6112,
    "Birth Place": "Bentley"
  },
  {
    "Name": "James",
    "Surname": "McQuillan",
    "Age at 28 Aug": 31,
    "M/F": "M",
    "Sport": "Wheelchair Rugby",
    "Classification": 0.5,
    "Resident City": "Kew",
    "State": "VIC",
    "Postcode": 3101,
    "Birth Place": "Echuca"
  },
  {
    "Name": "Emilie",
    "Surname": "Miller",
    "Age at 28 Aug": 29,
    "M/F": "F",
    "Sport": "Wheelchair Rugby",
    "Classification": 0.5,
    "Resident City": "Bathurst",
    "State": "NSW",
    "Postcode": 2795,
    "Birth Place": "Orange"
  },
  {
    "Name": "Josh",
    "Surname": "Nicholson",
    "Age at 28 Aug": 29,
    "M/F": "M",
    "Sport": "Wheelchair Rugby",
    "Classification": 2,
    "Resident City": "Wooloowin",
    "State": "QLD",
    "Postcode": 4030,
    "Birth Place": "Prairiewood"
  },
  {
    "Name": "Ella",
    "Surname": "Sabljak",
    "Age at 28 Aug": 32,
    "M/F": "F",
    "Sport": "Wheelchair Rugby",
    "Classification": 2.5,
    "Resident City": "Parkwood",
    "State": "QLD",
    "Postcode": 4214,
    "Birth Place": "Moonee Ponds"
  },
  {
    "Name": "Beau",
    "Surname": "Vernon",
    "Age at 28 Aug": 35,
    "M/F": "M",
    "Sport": "Wheelchair Rugby",
    "Classification": 0.5,
    "Resident City": "Mountain Creek",
    "State": "QLD",
    "Postcode": 4557,
    "Birth Place": "Mount Waverley"
  },
  {
    "Name": "Heath",
    "Surname": "Davidson",
    "Age at 28 Aug": 37,
    "M/F": "M",
    "Sport": "Wheelchair Tennis",
    "Event(s)": "Quad Singles",
    "Classification": "Quad",
    "Resident City": "Frankston",
    "State": "VIC",
    "Postcode": 3199,
    "Birth Place": "Mount Waverly"
  },
  {
    "Name": "Anderson (Andy)",
    "Surname": "Parker",
    "Age at 28 Aug": 26,
    "M/F": "M",
    "Sport": "Wheelchair Tennis",
    "Event(s)": "Open Singles, Open Doubles",
    "Classification": "Open",
    "Resident City": "Allawah",
    "State": "NSW",
    "Postcode": 2218,
    "Birth Place": "Randwick"
  },
  {
    "Name": "Ben",
    "Surname": "Weekes",
    "Age at 28 Aug": 39,
    "M/F": "M",
    "Sport": "Wheelchair Tennis",
    "Event(s)": "Open Singles, Open Doubles",
    "Classification": "Open",
    "Resident City": "Granville",
    "State": "NSW",
    "Postcode": 2142,
    "Birth Place": "Sydney"
  }
]